*******************************************************************************
JPL/HORIZONS                404 Arsinoe (A895 MA)          2020-Jun-22 08:58:44
Rec #:     404 (+COV) Soln.date: 2020-May-20_01:04:55   # obs: 2659 (1899-2020)
 
IAU76/J2000 helio. ecliptic osc. elements (au, days, deg., period=Julian yrs):
 
  EPOCH=  2455313.5 ! 2010-Apr-27.00 (TDB)         Residual RMS= .2564
   EC= .1994928309101005   QR= 2.075482882203587   TP= 2455900.7773612202
   OM= 92.65005475140119   W=  120.8783526583861   IN= 14.11280437896639
   A= 2.592709924838292    MA= 221.3510968140685   ADIST= 3.109936967472997
   PER= 4.17483            N= .236087594           ANGMOM= .027141875
   DAN= 2.77348            DDN= 2.25831            L= 214.3074016
   B= 12.0796201           MOID= 1.10511005        TP= 2011-Dec-05.2773612202
 
Asteroid physical parameters (km, seconds, rotational period in hours):
   GM= n.a.                RAD= 47.485             ROTPER= 8.887
   H= 9.2                  G= .150                 B-V= .675
                           ALBEDO= .037            STYP= Ch
 
ASTEROID comments: 
1: soln ref.= JPL#120, OCC=0
2: source=ORB
*******************************************************************************
 
 
*******************************************************************************
Ephemeris / WWW_USER Mon Jun 22 08:58:44 2020 Pasadena, USA      / Horizons
*******************************************************************************
Target body name: 404 Arsinoe (A895 MA)           {source: JPL#120}
Center body name: Solar System Barycenter (0)     {source: DE431}
Center-site name: BODY CENTER
*******************************************************************************
Start time      : A.D. 1969-Jun-28 00:00:00.0000 TDB
Stop  time      : A.D. 2071-May-04 00:00:00.0000 TDB
Step-size       : 7200 minutes
*******************************************************************************
Center geodetic : 0.00000000,0.00000000,0.0000000 {E-lon(deg),Lat(deg),Alt(km)}
Center cylindric: 0.00000000,0.00000000,0.0000000 {E-lon(deg),Dxy(km),Dz(km)}
Center radii    : (undefined)                                                  
Small perturbers: Yes                             {source: SB431-N16}
Output units    : AU-D
Output type     : GEOMETRIC cartesian states
Output format   : 2 (position and velocity)
Reference frame : Ecliptic of J2000.0
*******************************************************************************
Initial IAU76/J2000 heliocentric ecliptic osculating elements (au, days, deg.):
  EPOCH=  2455313.5 ! 2010-Apr-27.00 (TDB)         Residual RMS= .2564         
   EC= .1994928309101005   QR= 2.075482882203587   TP= 2455900.7773612202      
   OM= 92.65005475140119   W=  120.8783526583861   IN= 14.11280437896639       
  Equivalent ICRF heliocentric equatorial cartesian coordinates (au, au/d):
   X= 1.358042389279707E+00  Y= 2.596401004851136E+00  Z= 7.201159697973571E-01
  VX=-8.198871675867778E-03 VY= 2.197819339274508E-03 VZ= 3.155775287536822E-03
Asteroid physical parameters (km, seconds, rotational period in hours):        
   GM= n.a.                RAD= 47.485             ROTPER= 8.887               
   H= 9.2                  G= .150                 B-V= .675                   
                           ALBEDO= .037            STYP= Ch                    
*******************************************************************************
            JDTDB,            Calendar Date (TDB),        delta-T,                      X,                      Y,                      Z,                     VX,                     VY,                     VZ,
******************************************************************************************************************************************************************************************************************
$$SOE
2462660.500000000, A.D. 2030-Jun-08 00:00:00.0000,      69.184734,  2.866113355341489E+00,  8.740594022806253E-01, -7.282484000848656E-01, -1.869074542181319E-03,  8.615094855846628E-03,  3.766280537756117E-04,
2462665.500000000, A.D. 2030-Jun-13 00:00:00.0000,      69.184605,  2.856407076222902E+00,  9.170229894210234E-01, -7.262735340766648E-01, -2.013285446592342E-03,  8.570001230729722E-03,  4.132839000301152E-04,
2462670.500000000, A.D. 2030-Jun-18 00:00:00.0000,      69.184470,  2.845982026375526E+00,  9.597560408411533E-01, -7.241159079652471E-01, -2.156581054181392E-03,  8.522883339485303E-03,  4.497316188518981E-04,
2462675.500000000, A.D. 2030-Jun-23 00:00:00.0000,      69.184333,  2.834842808902128E+00,  1.002248476337302E+00, -7.217765695077014E-01, -2.298950731671894E-03,  8.473757543345797E-03,  4.859683667614323E-04,
2462680.500000000, A.D. 2030-Jun-28 00:00:00.0000,      69.184195,  2.822994079874733E+00,  1.044490296176769E+00, -7.192565806150438E-01, -2.440383921503473E-03,  8.422639671071874E-03,  5.219913248871661E-04,
2462685.500000000, A.D. 2030-Jul-03 00:00:00.0000,      69.184056,  2.810440548003051E+00,  1.086471578459397E+00, -7.165570172409401E-01, -2.580870123039664E-03,  8.369545028507012E-03,  5.577976942541275E-04,
2462690.500000000, A.D. 2030-Jul-08 00:00:00.0000,      69.183916,  2.797186974396230E+00,  1.128182476526608E+00, -7.136789692939027E-01, -2.720398874128466E-03,  8.314488407999322E-03,  5.933846911408081E-04,
2462695.500000000, A.D. 2030-Jul-13 00:00:00.0000,      69.183775,  2.783238172415050E+00,  1.169613216417399E+00, -7.106235405722212E-01, -2.858959733364032E-03,  8.257484097815201E-03,  6.287495426293780E-04,
2462700.500000000, A.D. 2030-Jul-18 00:00:00.0000,      69.183634,  2.768599007611433E+00,  1.210754094371938E+00, -7.073918487208295E-01, -2.996542262842331E-03,  8.198545891786294E-03,  6.638894822556484E-04,
2462705.500000000, A.D. 2030-Jul-23 00:00:00.0000,      69.183497,  2.753274397753613E+00,  1.251595474383995E+00, -7.039850252099275E-01, -3.133136011110245E-03,  8.137687099177521E-03,  6.988017456472743E-04,
2462710.500000000, A.D. 2030-Jul-28 00:00:00.0000,      69.183365,  2.737269312936351E+00,  1.292127785802988E+00, -7.004042153355129E-01, -3.268730496184708E-03,  8.074920554644953E-03,  7.334835661208525E-04,
2462715.500000000, A.D. 2030-Aug-02 00:00:00.0000,      69.183238,  2.720588775775864E+00,  1.332341520985809E+00, -6.966505782419805E-01, -3.403315188660236E-03,  8.010258628171044E-03,  7.679321702665846E-04,
2462720.500000000, A.D. 2030-Aug-07 00:00:00.0000,      69.183116,  2.703237861688888E+00,  1.372227232998135E+00, -6.927252869667456E-01, -3.536879494960273E-03,  7.943713234924587E-03,  8.021447735578545E-04,
2462725.500000000, A.D. 2030-Aug-12 00:00:00.0000,      69.182998,  2.685221699254988E+00,  1.411775533364833E+00, -6.886295285066925E-01, -3.669412740788971E-03,  7.875295845034172E-03,  8.361185760174792E-04,
2462730.500000000, A.D. 2030-Aug-17 00:00:00.0000,      69.182886,  2.666545470661046E+00,  1.450977089869047E+00, -6.843645039061094E-01, -3.800904154817887E-03,  7.805017493297079E-03,  8.698507579572123E-04,
2462735.500000000, A.D. 2030-Aug-22 00:00:00.0000,      69.182784,  2.647214412226697E+00,  1.489822624399747E+00, -6.799314283657375E-01, -3.931342852614927E-03,  7.732888788860354E-03,  9.033384757925888E-04,
2462740.500000000, A.D. 2030-Aug-27 00:00:00.0000,      69.182691,  2.627233815009557E+00,  1.528302910847706E+00, -6.753315313725762E-01, -4.060717820794440E-03,  7.658919924916606E-03,  9.365788579224041E-04,
2462745.500000000, A.D. 2030-Sep-01 00:00:00.0000,      69.182609,  2.606609025489247E+00,  1.566408773050067E+00, -6.705660568501745E-01, -4.189017901336672E-03,  7.583120688451679E-03,  9.695690006503421E-04,
2462750.500000000, A.D. 2030-Sep-06 00:00:00.0000,      69.182535,  2.585345446329557E+00,  1.604131082783797E+00, -6.656362633292682E-01, -4.316231776000168E-03,  7.505500470043817E-03,  1.002305964120288E-03,
2462755.500000000, A.D. 2030-Sep-11 00:00:00.0000,      69.182471,  2.563448537218413E+00,  1.641460757808086E+00, -6.605434241387276E-01, -4.442347950792351E-03,  7.426068273615424E-03,  1.034786768263190E-03,
2462760.500000000, A.D. 2030-Sep-16 00:00:00.0000,      69.182417,  2.540923815785049E+00,  1.678388759955036E+00, -6.552888276165826E-01, -4.567354740672424E-03,  7.344832725981780E-03,  1.067008388840263E-03,
2462765.500000000, A.D. 2030-Sep-21 00:00:00.0000,      69.182375,  2.517776858592426E+00,  1.714906093267796E+00, -6.498737773403580E-01, -4.691240254766826E-03,  7.261802086359469E-03,  1.098967753676706E-03,
2462770.500000000, A.D. 2030-Sep-26 00:00:00.0000,      69.182347,  2.494013302202742E+00,  1.751003802187288E+00, -6.442995923760414E-01, -4.813992381798120E-03,  7.176984256360371E-03,  1.130661738923834E-03,
2462775.500000000, A.D. 2030-Oct-01 00:00:00.0000,      69.182331,  2.469638844316817E+00,  1.786672969790221E+00, -6.385676075462461E-01, -4.935598775044629E-03,  7.090386790426097E-03,  1.162087165105579E-03,
2462780.500000000, A.D. 2030-Oct-06 00:00:00.0000,      69.182327,  2.444659244989683E+00,  1.821904716079081E+00, -6.326791737184645E-01, -5.056046836992087E-03,  7.002016906116351E-03,  1.193240793079677E-03,
2462785.500000000, A.D. 2030-Oct-11 00:00:00.0000,      69.182333,  2.419080327922600E+00,  1.856690196322939E+00, -6.266356581132877E-01, -5.175323704153183E-03,  6.911881494180314E-03,  1.224119320103001E-03,
2462790.500000000, A.D. 2030-Oct-16 00:00:00.0000,      69.182351,  2.392907981830421E+00,  1.891020599448576E+00, -6.204384446320296E-01, -5.293416232091186E-03,  6.819987128641337E-03,  1.254719375994889E-03,
2462795.500000000, A.D. 2030-Oct-21 00:00:00.0000,      69.182383,  2.366148161883627E+00,  1.924887146482304E+00, -6.140889342034140E-01, -5.410310980506500E-03,  6.726340076999654E-03,  1.285037519341559E-03,
